     2.10           G: GLONASS NAV DATA                     RINEX VERSION / TYPE
teqc  2015Jun23                         20211126 01:25:49UTCPGM / RUN BY / DATE
Linux 2.4.21-27.ELsmp|Opteron|gcc -static|Linux x86_64|=+   COMMENT
  2021    11     2   -0.000000000000D+00                    CORR TO SYSTEM TIME
                                                            END OF HEADER
13 21 11  3 20 15  0.0-6.304588168859D-05-0.000000000000D+00 7.200000000000D+04
   -5.967493652344D+03-2.288589477539D-01 1.862645149231D-09 0.000000000000D+00
    1.763213574219D+04-2.377989768982D+00-9.313225746155D-10-2.000000000000D+00
   -1.745338281250D+04-2.325277328491D+00 2.793967723846D-09 0.000000000000D+00
14 21 11  3 20 15  0.0 7.062684744596D-05 0.000000000000D+00 7.200000000000D+04
    2.927498535156D+03 1.240768432617D-01 4.656612873077D-09 0.000000000000D+00
    2.532035205078D+04-1.274404525757D-01 9.313225746155D-10-7.000000000000D+00
   -7.901538085938D+02-3.558383941650D+00 9.313225746155D-10 0.000000000000D+00
15 21 11  3 20 15  0.0 1.004301011562D-04-0.000000000000D+00 7.200000000000D+04
    9.740224609375D+03 3.796596527100D-01 4.656612873077D-09 0.000000000000D+00
    1.774141455078D+04 2.093036651611D+00 2.793967723846D-09 0.000000000000D+00
    1.554955419922D+04-2.629487991333D+00-0.000000000000D+00 0.000000000000D+00
 2 21 11  3 20 45  0.0 4.988657310605D-04 9.094947017729D-13 7.380000000000D+04
   -1.859109423828D+04 2.011060714722D-01 9.313225746155D-10 0.000000000000D+00
    1.749967041016D+04 5.224704742432D-02-2.793967723846D-09-4.000000000000D+00
    8.235380859375D+02 3.567601203918D+00-0.000000000000D+00 0.000000000000D+00
 3 21 11  3 20 45  0.0 4.583317786455D-05 0.000000000000D+00 7.380000000000D+04
   -8.265291015625D+03-1.432927131653D+00 1.862645149231D-09 0.000000000000D+00
    1.848131933594D+04 1.580547332764D+00-1.862645149231D-09 5.000000000000D+00
   -1.552103222656D+04 2.633552551270D+00 1.862645149231D-09 0.000000000000D+00
13 21 11  3 20 45  0.0-6.304681301117D-05-0.000000000000D+00 7.380000000000D+04
   -6.791308593750D+03-6.992464065552D-01 0.000000000000D+00 0.000000000000D+00
    1.295338623047D+04-2.773691177368D+00-1.862645149231D-09-2.000000000000D+00
   -2.091093945312D+04-1.491568565369D+00 2.793967723846D-09 0.000000000000D+00
14 21 11  3 20 45  0.0 7.062684744596D-05 0.000000000000D+00 7.380000000000D+04
    2.962014648438D+03-1.230516433716D-01 3.725290298462D-09 0.000000000000D+00
    2.431494726562D+04-9.732341766357D-01 0.000000000000D+00-7.000000000000D+00
   -7.081810058594D+03-3.386887550354D+00 1.862645149231D-09 0.000000000000D+00
15 21 11  3 20 45  0.0 1.004301011562D-04-0.000000000000D+00 7.380000000000D+04
    1.055797509766D+04 4.904737472534D-01 5.587935447693D-09 0.000000000000D+00
    2.083498144531D+04 1.321949958801D+00 1.862645149231D-09 0.000000000000D+00
    1.027732812500D+04-3.190615653992D+00 0.000000000000D+00 0.000000000000D+00
17 21 11  3 20 45  0.0 4.718108102679D-04 2.728484105319D-12 7.380000000000D+04
    1.826509765625D+03-2.995253562927D+00 2.793967723846D-09 0.000000000000D+00
    1.127656347656D+04-8.916664123535D-01 9.313225746155D-10 4.000000000000D+00
    2.282405908203D+04 6.762104034424D-01-1.862645149231D-09 0.000000000000D+00
13 21 11  3 21 15  0.0-6.304681301117D-05-0.000000000000D+00 7.560000000000D+04
   -8.498862792969D+03-1.192872047424D+00-1.862645149231D-09 0.000000000000D+00
    7.824902832031D+03-2.874174118042D+00-2.793967723846D-09-2.000000000000D+00
   -2.275383642578D+04-5.428333282471D-01 2.793967723846D-09 0.000000000000D+00
 2 21 11  3 21 15  0.0 4.988694563508D-04 1.818989403546D-12 7.560000000000D+04
   -1.771646679688D+04 7.346439361572D-01 0.000000000000D+00 0.000000000000D+00
    1.697501464844D+04-6.555852890015D-01-2.793967723846D-09-4.000000000000D+00
    7.130931152344D+03 3.395336151123D+00-9.313225746155D-10 0.000000000000D+00
 3 21 11  3 21 15  0.0 4.583504050970D-05 0.000000000000D+00 7.560000000000D+04
   -1.022287255859D+04-7.479581832886D-01 9.313225746155D-10 0.000000000000D+00
    2.102371093750D+04 1.200186729431D+00-2.793967723846D-09 5.000000000000D+00
   -1.024221972656D+04 3.193617820740D+00 9.313225746155D-10 0.000000000000D+00
14 21 11  3 21 15  0.0 7.062777876854D-05 0.000000000000D+00 7.560000000000D+04
    2.366094238281D+03-5.662736892700D-01 2.793967723846D-09 0.000000000000D+00
    2.190717138672D+04-1.669096946716D+00-9.313225746155D-10-7.000000000000D+00
   -1.282515673828D+04-2.953093528748D+00 1.862645149231D-09 0.000000000000D+00
15 21 11  3 21 15  0.0 1.004301011562D-04-0.000000000000D+00 7.560000000000D+04
    1.135873193359D+04 3.574504852295D-01 5.587935447693D-09 0.000000000000D+00
    2.245362207031D+04 4.731798171997D-01 9.313225746155D-10 0.000000000000D+00
    4.211402832031D+03-3.505605697632D+00 9.313225746155D-10 0.000000000000D+00
 4 21 11  3 21 15  0.0 1.125158742070D-04 1.818989403546D-12 7.566000000000D+04
    2.688978027344D+03-1.792337417603D+00 9.313225746155D-10 0.000000000000D+00
    1.306837109375D+04 2.381711959839D+00-9.313225746155D-10 6.000000000000D+00
   -2.172418115234D+04 1.208507537842D+00 2.793967723846D-09 0.000000000000D+00
 4 21 11  3 21 45  0.0 1.125195994973D-04 1.818989403546D-12 7.740000000000D+04
   -2.934033203125D+01-1.217795372009D+00 9.313225746155D-10 0.000000000000D+00
    1.729522460938D+04 2.265819549561D+00-1.862645149231D-09 6.000000000000D+00
   -1.873605517578D+04 2.089987754822D+00 2.793967723846D-09 0.000000000000D+00
 2 21 11  3 21 45  0.0 4.988722503185D-04 1.818989403546D-12 7.740000000000D+04
   -1.609168798828D+04 1.027437210083D+00-0.000000000000D+00 0.000000000000D+00
    1.509777392578D+04-1.432555198669D+00-2.793967723846D-09-4.000000000000D+00
    1.288970361328D+04 2.961997985840D+00-1.862645149231D-09 0.000000000000D+00
 3 21 11  3 21 45  0.0 4.583597183228D-05 9.094947017729D-13 7.740000000000D+04
   -1.101084960938D+04-1.505126953125D-01 0.000000000000D+00 0.000000000000D+00
    2.265671386719D+04 5.790815353394D-01-2.793967723846D-09 5.000000000000D+00
   -4.172654296875D+03 3.506585121155D+00 0.000000000000D+00 0.000000000000D+00
14 21 11  3 21 45  0.0 7.062777876854D-05 0.000000000000D+00 7.740000000000D+04
    8.518447265625D+02-1.127974510193D+00 9.313225746155D-10 0.000000000000D+00
    1.844731347656D+04-2.131059646606D+00-1.862645149231D-09-7.000000000000D+00
   -1.757533007812D+04-2.290538787842D+00 2.793967723846D-09 0.000000000000D+00
15 21 11  3 21 45  0.0 1.004291698337D-04-0.000000000000D+00 7.740000000000D+04
    1.169922216797D+04-1.670169830322D-02 4.656612873077D-09 0.000000000000D+00
    2.256118017578D+04-3.379650115967D-01-0.000000000000D+00 0.000000000000D+00
   -2.179943359375D+03-3.549785614014D+00 1.862645149231D-09 0.000000000000D+00
 4 21 11  3 22 15  0.0 1.125223934650D-04 1.818989403546D-12 7.920000000000D+04
   -1.692102539062D+03-6.381635665894D-01 0.000000000000D+00 0.000000000000D+00
    2.105062304688D+04 1.860337257385D+00-2.793967723846D-09 6.000000000000D+00
   -1.429774462891D+04 2.809363365173D+00 1.862645149231D-09 0.000000000000D+00
 2 21 11  3 22 15  0.0 4.988759756088D-04 1.818989403546D-12 7.920000000000D+04
   -1.417546337891D+04 1.058813095093D+00-9.313225746155D-10 0.000000000000D+00
    1.184405419922D+04-2.165899276733D+00-1.862645149231D-09-4.000000000000D+00
    1.765716601562D+04 2.300977706909D+00-2.793967723846D-09 0.000000000000D+00
 3 21 11  3 22 15  0.0 4.583783447742D-05 9.094947017729D-13 7.920000000000D+04
   -1.087199316406D+04 2.692947387695D-01-0.000000000000D+00 0.000000000000D+00
    2.300691552734D+04-2.101793289185D-01-3.725290298462D-09 5.000000000000D+00
    2.218720703125D+03 3.548978805542D+00-0.000000000000D+00 0.000000000000D+00
14 21 11  3 22 15  0.0 7.062871009111D-05 0.000000000000D+00 7.920000000000D+04
   -1.704663574219D+03-1.706180572510D+00-0.000000000000D+00 0.000000000000D+00
    1.440422851562D+04-2.313099861145D+00-1.862645149231D-09-7.000000000000D+00
   -2.096437548828D+04-1.450579643250D+00 2.793967723846D-09 0.000000000000D+00
15 21 11  3 22 15  0.0 1.004291698337D-04-0.000000000000D+00 7.920000000000D+04
    1.118119824219D+04-5.852870941162D-01 3.725290298462D-09 0.000000000000D+00
    2.132406738281D+04-1.004789352417D+00-9.313225746155D-10 0.000000000000D+00
   -8.402639160156D+03-3.319375038147D+00 1.862645149231D-09 0.000000000000D+00
17 21 11  3 22 15  0.0 4.718285053968D-04 2.728484105319D-12 7.953000000000D+04
   -1.425762304688D+04-2.506342887878D+00-9.313225746155D-10 0.000000000000D+00
    1.017183886719D+04 4.347782135010D-01-1.862645149231D-09 4.000000000000D+00
    1.853552197266D+04-2.172112464905D+00-2.793967723846D-09 0.000000000000D+00
16 21 11  3 22 15  0.0-2.439599484205D-05 0.000000000000D+00 7.965000000000D+04
    1.823799560547D+04 9.828443527222D-01 5.587935447693D-09 0.000000000000D+00
    1.463895800781D+04 1.021664619446D+00 0.000000000000D+00-1.000000000000D+00
    1.032793212891D+04-3.165418624878D+00 0.000000000000D+00 0.000000000000D+00
16 21 11  3 22 45  0.0-2.439599484205D-05 0.000000000000D+00 8.100000000000D+04
    1.962738037109D+04 5.220060348511D-01 5.587935447693D-09 0.000000000000D+00
    1.582295263672D+04 3.076505661011D-01-9.313225746155D-10-1.000000000000D+00
    4.306791015625D+03-3.481546401978D+00 9.313225746155D-10 0.000000000000D+00
 2 21 11  3 22 45  0.0 4.988787695765D-04 1.818989403546D-12 8.100000000000D+04
   -1.242300488281D+04 8.531579971313D-01-9.313225746155D-10 0.000000000000D+00
    7.392965332031D+03-2.745903968811D+00-9.313225746155D-10-4.000000000000D+00
    2.106669628906D+04 1.462866783142D+00-3.725290298462D-09 0.000000000000D+00
 3 21 11  3 22 45  0.0 4.583969712257D-05 9.094947017729D-13 8.100000000000D+04
   -1.018255908203D+04 4.552745819092D-01-9.313225746155D-10 0.000000000000D+00
    2.185997314453D+04-1.065822601318D+00-2.793967723846D-09 5.000000000000D+00
    8.439285644531D+03 3.318103790283D+00-9.313225746155D-10 0.000000000000D+00
